NORAD_CAT_ID,OBJECT_NAME,OBJECT_TYPE,EPOCH,MEAN_MOTION,ECCENTRICITY,INCLINATION,RA_OF_ASC_NODE,ARG_OF_PERICENTER,MEAN_ANOMALY,BSTAR,MEAN_MOTION_DOT,MEAN_MOTION_DDOT,TLE_LINE0,TLE_LINE1,TLE_LINE2,SEMIMAJOR_AXIS,PERIOD,APOGEE,PERIGEE,DECAYED
54190.0,STARLINK-5281,PAYLOAD,2024-01-07 05:49:43,15.08849189,0.0001549,53.2185,311.6668,118.2675,241.8474,-3.3295e-05,-8.18e-06,0.0,0 STARLINK-5281,1 54190U 22141AK  24007.24285909 -.00000818  00000-0 -33295-4 0  9996,2 54190  53.2185 311.6668 0001549 118.2675 241.8474 15.08849189 66369,6917.852,95.437,540.789,538.646,0.0
54190.0,STARLINK-5281,PAYLOAD,2024-01-08 02:29:44,15.08840914,0.00017,53.2192,307.7998,89.9372,270.1814,1.4909e-05,-5.1e-07,0.0,0 STARLINK-5281,1 54190U 22141AK  24008.10398442 -.00000051  00000-0  14909-4 0  9998,2 54190  53.2192 307.7998 0001700  89.9372 270.1814 15.08840914 66726,6917.878,95.437,540.919,538.567,0.0
54190.0,STARLINK-5281,PAYLOAD,2024-01-09 05:31:17,15.08838519,0.0001943,53.2197,302.7469,111.7646,248.3553,4.9527e-05,5e-06,0.0,0 STARLINK-5281,1 54190U 22141AK  24009.23006553  .00000500  00000-0  49527-4 0  9994,2 54190  53.2197 302.7469 0001943 111.7646 248.3553 15.08838519 66899,6917.885,95.438,541.094,538.406,0.0
54190.0,STARLINK-5281,PAYLOAD,2024-01-09 19:49:46,15.08846946,0.0001579,53.2173,300.0733,109.003,251.1133,-9.3028e-05,-1.769e-05,0.0,0 STARLINK-5281,1 54190U 22141AK  24009.82622800 -.00001769  00000-0 -93028-4 0  9993,2 54190  53.2173 300.0733 0001579 109.0030 251.1133 15.08846946 66754,6917.859,95.437,540.816,538.632,0.0
54190.0,STARLINK-5281,PAYLOAD,2024-01-10 02:11:18,15.08842295,0.000156,53.218,298.886,96.4191,263.6979,4.6787e-05,4.57e-06,0.0,0 STARLINK-5281,1 54190U 22141AK  24010.09118573  .00000457  00000-0  46787-4 0  9992,2 54190  53.2180 298.8860 0001560  96.4191 263.6979 15.08842295 66797,6917.873,95.437,540.818,538.659,0.0
54190.0,STARLINK-5281,PAYLOAD,2024-01-10 18:05:10,15.08835638,0.0001513,53.2179,295.912,93.0983,267.0183,-3.7721e-05,-8.88e-06,0.0,0 STARLINK-5281,1 54190U 22141AK  24010.75359610 -.00000888  00000-0 -37721-4 0  9992,2 54190  53.2179 295.9120 0001513  93.0983 267.0183 15.08835638 67128,6917.894,95.438,540.805,538.712,0.0
54190.0,STARLINK-5281,PAYLOAD,2024-01-11 00:26:42,15.08842559,0.0001476,53.2173,294.7232,106.3094,253.8061,1.3471e-05,-7.4e-07,0.0,0 STARLINK-5281,1 54190U 22141AK  24011.01855001 -.00000074  00000-0  13471-4 0  9999,2 54190  53.2173 294.7232 0001476 106.3094 253.8061 15.08842559 67164,6917.873,95.437,540.759,538.716,0.0
54190.0,STARLINK-5281,PAYLOAD,2024-01-11 05:12:51,15.08844172,0.0001665,53.2174,293.8296,109.8553,250.2619,8.7792e-05,1.11e-05,0.0,0 STARLINK-5281,1 54190U 22141AK  24011.21726682  .00001110  00000-0  87792-4 0  9991,2 54190  53.2174 293.8296 0001665 109.8553 250.2619 15.08844172 66963,6917.868,95.437,540.884,538.581,0.0
54190.0,STARLINK-5281,PAYLOAD,2024-01-12 03:28:16,15.08814858,9.68e-05,53.2182,289.663,106.7381,253.3717,0.00053108,8.169e-05,0.0,0 STARLINK-5281,1 54190U 22141AK  24012.14463829  .00008169  00000-0  53108-3 0  9999,2 54190  53.2182 289.6630 0000968 106.7381 253.3717 15.08814858 67330,6917.957,95.439,540.492,539.153,0.0
54190.0,STARLINK-5281,PAYLOAD,2024-01-12 22:32:54,15.08837025,0.0001565,53.2187,286.0967,98.9096,261.2073,-3.0819e-05,-7.78e-06,0.0,0 STARLINK-5281,1 54190U 22141AK  24012.93952017 -.00000778  00000-0 -30819-4 0  9993,2 54190  53.2187 286.0967 0001565  98.9096 261.2073 15.08837025 67220,6917.889,95.438,540.837,538.672,0.0
54190.0,STARLINK-5281,PAYLOAD,2024-01-13 03:19:03,15.08842814,0.0001525,53.2179,285.2043,93.0497,267.0669,4.0868e-05,3.63e-06,0.0,0 STARLINK-5281,1 54190U 22141AK  24013.13823446  .00000363  00000-0  40868-4 0  9992,2 54190  53.2179 285.2043 0001525  93.0497 267.0669 15.08842814 67489,6917.872,95.437,540.792,538.682,0.0
54190.0,STARLINK-5281,PAYLOAD,2024-01-14 03:09:50,15.08850837,0.0001663,53.2195,280.7375,79.4582,280.6597,7.6596e-05,9.32e-06,0.0,0 STARLINK-5281,1 54190U 22141AK  24014.13182993  .00000932  00000-0  76596-4 0  9997,2 54190  53.2195 280.7375 0001663  79.4582 280.6597 15.08850837 67408,6917.847,95.437,540.863,538.562,0.0
54190.0,STARLINK-5281,PAYLOAD,2024-01-14 22:14:27,15.0885055,0.0001708,53.2199,277.1701,89.4212,270.6976,0.00011306,1.512e-05,0.0,0 STARLINK-5281,1 54190U 22141AK  24014.92670679  .00001512  00000-0  11306-3 0  9999,2 54190  53.2199 277.1701 0001708  89.4212 270.6976 15.08850550 67521,6917.848,95.437,540.895,538.532,0.0
54190.0,STARLINK-5281,PAYLOAD,2024-01-15 03:00:36,15.08853725,0.0001669,53.2198,276.2778,84.4251,275.6931,0.00014702,2.053e-05,0.0,0 STARLINK-5281,1 54190U 22141AK  24015.12542297  .00002053  00000-0  14702-3 0  9990,2 54190  53.2198 276.2778 0001669  84.4251 275.6931 15.08853725 67789,6917.838,95.437,540.858,538.549,0.0
54190.0,STARLINK-5281,PAYLOAD,2024-01-15 20:29:51,15.0884264,0.0001968,53.2186,273.0032,130.4914,229.625,4.37e-06,-2.19e-06,0.0,0 STARLINK-5281,1 54190U 22141AK  24015.85406928 -.00000219  00000-0  43700-5 0  9995,2 54190  53.2186 273.0032 0001968 130.4914 229.6250 15.08842640 67668,6917.872,95.437,541.099,538.376,0.0
54190.0,STARLINK-5281,PAYLOAD,2024-01-16 02:51:24,15.08842483,0.0001534,53.2179,271.8236,108.528,251.5879,-2.8311e-05,-7.39e-06,0.0,0 STARLINK-5281,1 54190U 22141AK  24016.11903180 -.00000739  00000-0 -28311-4 0  9995,2 54190  53.2179 271.8236 0001534 108.5280 251.5879 15.08842483 67939,6917.873,95.437,540.799,538.677,0.0
54190.0,STARLINK-5281,PAYLOAD,2024-01-16 21:56:02,15.08841268,0.0001332,53.2173,268.2553,99.6127,260.5015,-0.00010524,-1.962e-05,0.0,0 STARLINK-5281,1 54190U 22141AK  24016.91391664 -.00001962  00000-0 -10524-3 0  9996,2 54190  53.2173 268.2553 0001332  99.6127 260.5015 15.08841268 67821,6917.877,95.437,540.663,538.82,0.0
54190.0,STARLINK-5281,PAYLOAD,2024-01-16 23:31:25,15.08843402,0.0001324,53.2171,267.9604,98.2101,261.9041,-0.00010532,-1.964e-05,0.0,0 STARLINK-5281,1 54190U 22141AK  24016.98015417 -.00001964  00000-0 -10532-3 0  9993,2 54190  53.2171 267.9604 0001324  98.2101 261.9041 15.08843402 67837,6917.87,95.437,540.651,538.819,0.0
54190.0,STARLINK-5281,PAYLOAD,2024-01-17 20:11:26,15.08831925,0.0001608,53.2173,264.0978,116.3324,243.7833,3.6176e-05,2.88e-06,0.0,0 STARLINK-5281,1 54190U 22141AK  24017.84128262  .00000288  00000-0  36176-4 0  9991,2 54190  53.2173 264.0978 0001608 116.3324 243.7833 15.08831925 68199,6917.905,95.438,540.882,538.658,0.0
54190.0,STARLINK-5281,PAYLOAD,2024-01-17 21:46:49,15.08831485,0.0001428,53.2169,263.7951,85.8115,274.304,5.4543e-05,5.8e-06,0.0,0 STARLINK-5281,1 54190U 22141AK  24017.90752300  .00000580  00000-0  54543-4 0  9997,2 54190  53.2169 263.7951 0001428  85.8115 274.3040 15.08831485 67975,6917.906,95.438,540.759,538.784,0.0
54190.0,STARLINK-5281,PAYLOAD,2024-01-18 02:32:59,15.08835429,0.0001419,53.2168,262.9044,98.4169,261.6984,5.4159e-05,5.74e-06,0.0,0 STARLINK-5281,1 54190U 22141AK  24018.10624054  .00000574  00000-0  54159-4 0  9990,2 54190  53.2168 262.9044 0001419  98.4169 261.6984 15.08835429 68000,6917.894,95.438,540.741,538.778,0.0
54190.0,STARLINK-5281,PAYLOAD,2024-01-18 21:37:36,15.0884055,0.000137,53.2163,259.337,87.45,272.6649,5.9712e-05,6.63e-06,0.0,0 STARLINK-5281,1 54190U 22141AK  24018.90112208  .00000663  00000-0  59712-4 0  9990,2 54190  53.2163 259.3370 0001370  87.4500 272.6649 15.08840550 68124,6917.879,95.438,540.691,538.796,0.0
54190.0,STARLINK-5281,PAYLOAD,2024-01-19 23:03:46,15.08845642,0.0001529,53.2165,254.5795,90.536,269.5808,0.00011789,1.589e-05,0.0,0 STARLINK-5281,1 54190U 22141AK  24019.96095833  .00001589  00000-0  11789-3 0  9990,2 54190  53.2165 254.5795 0001529  90.5360 269.5808 15.08845642 68285,6917.863,95.437,540.786,538.67,0.0
54190.0,STARLINK-5281,PAYLOAD,2024-01-20 19:43:48,15.08838917,0.0001796,53.2171,250.7157,70.6653,289.4534,3.1826e-05,2.18e-06,0.0,0 STARLINK-5281,1 54190U 22141AK  24020.82208724  .00000218  00000-0  31826-4 0  9995,2 54190  53.2171 250.7157 0001796  70.6653 289.4534 15.08838917 68646,6917.884,95.438,540.991,538.506,0.0
54190.0,STARLINK-5281,PAYLOAD,2024-01-20 22:54:34,15.0883827,0.000176,53.2167,250.1208,68.8396,291.2784,1.9782e-05,2.7e-07,0.0,0 STARLINK-5281,1 54190U 22141AK  24020.95456763  .00000027  00000-0  19782-4 0  9992,2 54190  53.2167 250.1208 0001760  68.8396 291.2784 15.08838270 68433,6917.886,95.438,540.968,538.533,0.0
54190.0,STARLINK-5281,PAYLOAD,2024-01-21 19:34:34,15.08851623,0.0001324,53.2161,246.254,92.0879,268.0265,-3.1548e-05,-7.9e-06,0.0,0 STARLINK-5281,1 54190U 22141AK  24021.81567839 -.00000790  00000-0 -31548-4 0  9998,2 54190  53.2161 246.2540 0001324  92.0879 268.0265 15.08851623 68795,6917.845,95.437,540.626,538.794,0.0
54190.0,STARLINK-5281,PAYLOAD,2024-01-21 21:09:57,15.08850898,0.0001417,53.2161,245.9567,87.0216,273.0938,-1.2644e-05,-4.89e-06,0.0,0 STARLINK-5281,1 54190U 22141AK  24021.88191797 -.00000489  00000-0 -12644-4 0  9992,2 54190  53.2161 245.9567 0001417  87.0216 273.0938 15.08850898 68574,6917.847,95.437,540.692,538.732,0.0
54190.0,STARLINK-5281,PAYLOAD,2024-01-22 19:25:22,15.08836699,0.0001403,53.2156,241.7927,82.919,277.1961,2.7222e-05,1.45e-06,0.0,0 STARLINK-5281,1 54190U 22141AK  24022.80928658  .00000145  00000-0  27222-4 0  9994,2 54190  53.2156 241.7927 0001403  82.9190 277.1961 15.08836699 68947,6917.89,95.438,540.726,538.785,0.0
54190.0,STARLINK-5281,PAYLOAD,2024-01-22 21:00:45,15.08835594,0.0001387,53.2158,241.4949,83.8713,276.2437,1.4264e-05,-6.1e-07,0.0,0 STARLINK-5281,1 54190U 22141AK  24022.87552709 -.00000061  00000-0  14264-4 0  9991,2 54190  53.2158 241.4949 0001387  83.8713 276.2437 15.08835594 68729,6917.894,95.438,540.718,538.799,0.0
54190.0,STARLINK-5281,PAYLOAD,2024-01-23 20:51:31,15.08847503,0.0001382,53.2161,237.0333,87.2095,272.9056,0.00013131,1.803e-05,0.0,0 STARLINK-5281,1 54190U 22141AK  24023.86911465  .00001803  00000-0  13131-3 0  9994,2 54190  53.2161 237.0333 0001382  87.2095 272.9056 15.08847503 68876,6917.857,95.437,540.679,538.766,0.0
